[
    {
        "Altitude(m)": 604969.0890600922,
        "Argument of Periapsis(deg)": 0.0,
        "Eccentricity": 0.0,
        "Inclination(deg)": 60.0,
        "Latitude(deg)": -0.09259703072273426,
        "Longitude(deg)": 29.977527778368373,
        "Mean Anomaly(deg)": 0.0,
        "RAAN(deg)": 130.0,
        "Satellite Name": "Test1 572",
        "Satellite Number": 572,
        "Semi-Major Axis(m)": 6980739.136638005,
        "Time(s)": 0
    },
    {
        "Altitude(m)": 604900.0290043054,
        "Argument of Periapsis(deg)": 0.00010418945913296404,
        "Eccentricity": 0.0,
        "Inclination(deg)": 60.0,
        "Latitude(deg)": 0.44782937205179696,
        "Longitude(deg)": 30.245649797948825,
        "Mean Anomaly(deg)": 0.6201061454618275,
        "RAAN(deg)": 129.99957995086024,
        "Satellite Name": "Test1 572",
        "Satellite Number": 572,
        "Semi-Major Axis(m)": 6980739.136638005,
        "Time(s)": 10
    }
]